import * as React from 'react';
// import Link from '@mui/material/Link';
// import Table from '@mui/material/Table';
// import TableBody from '@mui/material/TableBody';
// import TableCell from '@mui/material/TableCell';
// import TableHead from '@mui/material/TableHead';
// import TableRow from '@mui/material/TableRow';
// import Title from '../home/Title';

export default function Metar() {
  return (
    <React.Fragment>
        <h4>Metar SADF</h4>
      <span id="ContentPlaceHolder1_labelMETAR">27 - 18:00 METAR SADF 271800Z 06008KT 020V090 CAVOK 30/21 Q1009 RMK PP000  </span>
    </React.Fragment>
  );
}